{
    "links": {
        "self": "http://www.neowsapp.com/rest/v1/neo/3827428?api_key=iIulBulltgU6a56xZRHN4H3l9WmuAYTsLGpBGhQ2"
    },
    "id": "3827428",
    "neo_reference_id": "3827428",
    "name": "(2018 RX3)",
    "designation": "2018 RX3",
    "nasa_jpl_url": "http://ssd.jpl.nasa.gov/sbdb.cgi?sstr=3827428",
    "absolute_magnitude_h": 23.7,
    "estimated_diameter": {
        "kilometers": {
            "estimated_diameter_min": 0.0483676488,
            "estimated_diameter_max": 0.1081533507
        },
        "meters": {
            "estimated_diameter_min": 48.3676488219,
            "estimated_diameter_max": 108.1533506775
        },
        "miles": {
            "estimated_diameter_min": 0.0300542543,
            "estimated_diameter_max": 0.0672033557
        },
        "feet": {
            "estimated_diameter_min": 158.6865169607,
            "estimated_diameter_max": 354.8338390368
        }
    },
    "is_potentially_hazardous_asteroid": false,
    "close_approach_data": [
        {
            "close_approach_date": "2017-02-26",
            "close_approach_date_full": "2017-Feb-26 20:15",
            "epoch_date_close_approach": 1488140100000,
            "relative_velocity": {
                "kilometers_per_second": "15.8554845508",
                "kilometers_per_hour": "57079.7443827904",
                "miles_per_hour": "35467.1333916288"
            },
            "miss_distance": {
                "astronomical": "0.087640236",
                "lunar": "34.092051804",
                "kilometers": "13110792.63189732",
                "miles": "8146668.775410216"
            },
            "orbiting_body": "Earth"
        },
        {
            "close_approach_date": "2018-09-26",
            "close_approach_date_full": "2018-Sep-26 05:15",
            "epoch_date_close_approach": 1537938900000,
            "relative_velocity": {
                "kilometers_per_second": "14.0860326316",
                "kilometers_per_hour": "50709.717473819",
                "miles_per_hour": "31509.0463936627"
            },
            "miss_distance": {
                "astronomical": "0.05164952",
                "lunar": "20.09166328",
                "kilometers": "7726658.1785224",
                "miles": "4801122.76111312"
            },
            "orbiting_body": "Earth"
        }
    ],
    "orbital_data": {
        "orbit_id": "6",
        "orbit_determination_date": "2018-09-22 07:58:45",
        "first_observation_date": "2018-09-10",
        "last_observation_date": "2018-09-22",
        "data_arc_in_days": 12,
        "observations_used": 52,
        "orbit_uncertainty": "8",
        "minimum_orbit_intersection": ".0184602",
        "jupiter_tisserand_invariant": "4.379",
        "epoch_osculation": "2458375.5",
        "eccentricity": ".4941662488084464",
        "semi_major_axis": "1.508773032213897",
        "inclination": "6.396974537552721",
        "ascending_node_longitude": "161.9477125346747",
        "orbital_period": "676.9152467581467",
        "perihelion_distance": ".7631883225814102",
        "perihelion_argument": "277.9365816054948",
        "aphelion_distance": "2.254357741846384",
        "perihelion_time": "2458438.998860169814",
        "mean_anomaly": "326.2297610068451",
        "mean_motion": ".5318243335839995",
        "equinox": "J2000",
        "orbit_class": {
            "orbit_class_type": "APO",
            "orbit_class_description": "Near-Earth asteroid orbits which cross the Earth’s orbit similar to that of 1862 Apollo",
            "orbit_class_range": "a (semi-major axis) > 1.0 AU; q (perihelion) < 1.017 AU"
        }
    },
    "is_sentry_object": false
}